NORAD_CAT_ID,OBJECT_NAME,OBJECT_TYPE,EPOCH,MEAN_MOTION,ECCENTRICITY,INCLINATION,RA_OF_ASC_NODE,ARG_OF_PERICENTER,MEAN_ANOMALY,BSTAR,MEAN_MOTION_DOT,MEAN_MOTION_DDOT,TLE_LINE0,TLE_LINE1,TLE_LINE2,SEMIMAJOR_AXIS,PERIOD,APOGEE,PERIGEE,DECAYED
52703.0,STARLINK-4020,PAYLOAD,2024-05-03 14:55:49,15.08842593,0.0001502,53.2197,284.6319,93.0964,267.02,8.0536e-05,9.94e-06,0.0,0 STARLINK-4020,1 52703U 22053AZ  24124.62209992  .00000994  00000-0  80536-4 0  9999,2 52703  53.2197 284.6319 0001502  93.0964 267.0200 15.08842593108122,6917.872,95.437,540.777,538.698,0.0
52703.0,STARLINK-4020,PAYLOAD,2024-05-03 19:41:58,15.08848114,0.0001698,53.219,283.7389,93.7342,266.3844,0.00012455,1.695e-05,0.0,0 STARLINK-4020,1 52703U 22053AZ  24124.82081635  .00001695  00000-0  12455-3 0  9996,2 52703  53.2190 283.7389 0001698  93.7342 266.3844 15.08848114108159,6917.856,95.437,540.895,538.546,0.0
52703.0,STARLINK-4020,PAYLOAD,2024-05-04 03:38:53,15.08856558,0.0001634,53.2187,282.2502,80.5333,279.5843,0.00016165,2.287e-05,0.0,0 STARLINK-4020,1 52703U 22053AZ  24125.15200813  .00002287  00000-0  16165-3 0  9994,2 52703  53.2187 282.2502 0001634  80.5333 279.5843 15.08856558109056,6917.83,95.437,540.825,538.564,0.0
52703.0,STARLINK-4020,PAYLOAD,2024-05-04 19:32:46,15.08838989,0.0001413,53.2171,279.2778,80.8177,279.2975,8.4796e-05,1.062e-05,0.0,0 STARLINK-4020,1 52703U 22053AZ  24125.81442235  .00001062  00000-0  84796-4 0  9999,2 52703  53.2171 279.2778 0001413  80.8177 279.2975 15.08838989109156,6917.883,95.438,540.726,538.771,0.0
52703.0,STARLINK-4020,PAYLOAD,2024-05-05 14:37:23,15.08836885,0.000144,53.2176,275.7112,81.0828,279.0327,6.4947e-05,7.46e-06,0.0,0 STARLINK-4020,1 52703U 22053AZ  24126.60930421  .00000746  00000-0  64947-4 0  9990,2 52703  53.2176 275.7112 0001440  81.0828 279.0327 15.08836885108421,6917.89,95.438,540.751,538.759,0.0
52703.0,STARLINK-4020,PAYLOAD,2024-05-05 16:12:46,15.08838825,0.0001473,53.2174,275.4139,79.741,280.3748,5.6778e-05,6.16e-06,0.0,0 STARLINK-4020,1 52703U 22053AZ  24126.67554375  .00000616  00000-0  56778-4 0  9996,2 52703  53.2174 275.4139 0001473  79.7410 280.3748 15.08838825108431,6917.884,95.438,540.768,538.73,0.0
52703.0,STARLINK-4020,PAYLOAD,2024-05-06 12:52:47,15.08841456,0.0001308,53.2166,271.5463,81.5221,278.592,0.00030708,4.603e-05,0.0,0 STARLINK-4020,1 52703U 22053AZ  24127.53666595  .00004603  00000-0  30708-3 0  9994,2 52703  53.2166 271.5463 0001308  81.5221 278.5920 15.08841456109411,6917.876,95.437,540.646,538.836,0.0
52703.0,STARLINK-4020,PAYLOAD,2024-05-06 14:28:11,15.08841248,0.0001466,53.2168,271.2508,74.6567,285.4587,0.00028751,4.291e-05,0.0,0 STARLINK-4020,1 52703U 22053AZ  24127.60290676  .00004291  00000-0  28751-3 0  9993,2 52703  53.2168 271.2508 0001466  74.6567 285.4587 15.08841248108572,6917.877,95.437,540.756,538.727,0.0
52703.0,STARLINK-4020,PAYLOAD,2024-05-06 19:14:20,15.08848612,0.0001227,53.2166,270.3562,79.5828,280.5303,0.00018332,2.632e-05,0.0,0 STARLINK-4020,1 52703U 22053AZ  24127.80162157  .00002632  00000-0  18332-3 0  9998,2 52703  53.2166 270.3562 0001227  79.5828 280.5303 15.08848612108607,6917.854,95.437,540.568,538.87,0.0
52703.0,STARLINK-4020,PAYLOAD,2024-05-07 12:43:35,15.08831452,0.0001327,53.2171,267.0823,95.7442,264.3702,0.0001023,1.34e-05,0.0,0 STARLINK-4020,1 52703U 22053AZ  24128.53027182  .00001340  00000-0  10230-3 0  9991,2 52703  53.2171 267.0823 0001327  95.7442 264.3702 15.08831452109562,6917.907,95.438,540.69,538.854,0.0
52703.0,STARLINK-4020,PAYLOAD,2024-05-07 14:18:58,15.08830211,0.0001171,53.2176,266.7839,99.6287,260.4837,9.7698e-05,1.267e-05,0.0,0 STARLINK-4020,1 52703U 22053AZ  24128.59651218  .00001267  00000-0  97698-4 0  9992,2 52703  53.2176 266.7839 0001171  99.6287 260.4837 15.08830211108722,6917.91,95.438,540.585,538.965,0.0
52703.0,STARLINK-4020,PAYLOAD,2024-05-07 15:54:21,15.08830745,0.0001236,53.217,266.4875,94.2051,265.9082,-3.3581e-05,-8.22e-06,0.0,0 STARLINK-4020,1 52703U 22053AZ  24128.66275217 -.00000822  00000-0 -33581-4 0  9990,2 52703  53.2170 266.4875 0001236  94.2051 265.9082 15.08830745108730,6917.909,95.438,540.629,538.919,0.0
52703.0,STARLINK-4020,PAYLOAD,2024-05-08 12:34:22,15.088434,0.0001158,53.2173,262.6209,103.4052,256.7069,7.9667e-05,9.8e-06,0.0,0 STARLINK-4020,1 52703U 22053AZ  24129.52386723  .00000980  00000-0  79667-4 0  9999,2 52703  53.2173 262.6209 0001158 103.4052 256.7069 15.08843400109713,6917.87,95.437,540.536,538.934,0.0
52703.0,STARLINK-4020,PAYLOAD,2024-05-08 14:09:45,15.08845667,0.0001125,53.2174,262.3265,94.615,265.4971,0.00010798,1.431e-05,0.0,0 STARLINK-4020,1 52703U 22053AZ  24129.59010562  .00001431  00000-0  10798-3 0  9992,2 52703  53.2174 262.3265 0001125  94.6150 265.4971 15.08845667108879,6917.863,95.437,540.506,538.95,0.0
52703.0,STARLINK-4020,PAYLOAD,2024-05-08 15:45:08,15.08848856,0.000111,53.2174,262.0331,90.3114,269.8005,0.00013164,1.808e-05,0.0,0 STARLINK-4020,1 52703U 22053AZ  24129.65634381  .00001808  00000-0  13164-3 0  9998,2 52703  53.2174 262.0331 0001110  90.3114 269.8005 15.08848856108887,6917.853,95.437,540.486,538.95,0.0
52703.0,STARLINK-4020,PAYLOAD,2024-05-09 01:17:26,15.0886203,0.0001162,53.2176,260.2461,91.9258,268.1867,0.00034875,5.27e-05,0.0,0 STARLINK-4020,1 52703U 22053AZ  24130.05377657  .00005270  00000-0  34875-3 0  9993,2 52703  53.2176 260.2461 0001162  91.9258 268.1867 15.08862030109795,6917.813,95.436,540.482,538.874,0.0
52703.0,STARLINK-4020,PAYLOAD,2024-05-09 12:25:09,15.08828181,0.0001313,53.2175,258.1662,103.45,256.6639,4.04e-05,3.55e-06,0.0,0 STARLINK-4020,1 52703U 22053AZ  24130.51747470  .00000355  00000-0  40400-4 0  9999,2 52703  53.2175 258.1662 0001313 103.4500 256.6639 15.08828181109866,6917.917,95.438,540.69,538.873,0.0
52703.0,STARLINK-4020,PAYLOAD,2024-05-09 14:00:32,15.08829647,0.0001332,53.2179,257.8694,103.4221,256.692,5.5394e-05,5.94e-06,0.0,0 STARLINK-4020,1 52703U 22053AZ  24130.58371434  .00000594  00000-0  55394-4 0  9992,2 52703  53.2179 257.8694 0001332 103.4221 256.6920 15.08829647109021,6917.912,95.438,540.699,538.856,0.0
52703.0,STARLINK-4020,PAYLOAD,2024-05-09 15:35:55,15.08833776,0.0001363,53.2185,257.5748,110.0053,250.1086,0.00012767,1.744e-05,0.0,0 STARLINK-4020,1 52703U 22053AZ  24130.64995261  .00001744  00000-0  12767-3 0  9993,2 52703  53.2185 257.5748 0001363 110.0053 250.1086 15.08833776109037,6917.899,95.438,540.707,538.822,0.0
52703.0,STARLINK-4020,PAYLOAD,2024-05-10 12:15:56,15.08842732,0.0001204,53.2173,253.7045,97.8884,262.2245,8.4611e-05,1.059e-05,0.0,0 STARLINK-4020,1 52703U 22053AZ  24131.51106984  .00001059  00000-0  84611-4 0  9993,2 52703  53.2173 253.7045 0001204  97.8884 262.2245 15.08842732110013,6917.872,95.437,540.57,538.904,0.0
52703.0,STARLINK-4020,PAYLOAD,2024-05-10 13:51:19,15.08846449,0.0001448,53.219,253.4118,115.3439,244.7703,0.00017594,2.514e-05,0.0,0 STARLINK-4020,1 52703U 22053AZ  24131.57730808  .00002514  00000-0  17594-3 0  9999,2 52703  53.2190 253.4118 0001448 115.3439 244.7703 15.08846449109170,6917.861,95.437,540.727,538.724,0.0
52703.0,STARLINK-4020,PAYLOAD,2024-05-10 15:26:42,15.08846624,0.0001224,53.2178,253.1116,106.3362,253.7765,0.00019107,2.755e-05,0.0,0 STARLINK-4020,1 52703U 22053AZ  24131.64354811  .00002755  00000-0  19107-3 0  9992,2 52703  53.2178 253.1116 0001224 106.3362 253.7765 15.08846624109182,6917.86,95.437,540.572,538.878,0.0
52703.0,STARLINK-4020,PAYLOAD,2024-05-11 12:06:40,15.08911667,0.0001221,53.2179,249.2395,47.8859,312.2237,0.0016276,0.00025761,0.0,0 STARLINK-4020,1 52703U 22053AZ  24132.50463413  .00025761  00000-0  16276-2 0  9992,2 52703  53.2179 249.2395 0001221  47.8859 312.2237 15.08911667110160,6917.661,95.433,540.371,538.682,0.0
52703.0,STARLINK-4020,PAYLOAD,2024-05-11 16:52:52,15.08787206,0.0001209,53.2168,248.3522,95.5087,264.6043,-0.0021823,-0.00034801,0.0,0 STARLINK-4020,1 52703U 22053AZ  24132.70338691 -.00034801  00000-0 -21823-2 0  9994,2 52703  53.2168 248.3522 0001209  95.5087 264.6043 15.08787206110197,6918.042,95.441,540.743,539.07,0.0
52703.0,STARLINK-4020,PAYLOAD,2024-05-12 11:57:32,15.08774244,0.000146,53.2173,244.7849,55.7868,304.3262,-0.00030199,-5.082e-05,0.0,0 STARLINK-4020,1 52703U 22053AZ  24133.49829441 -.00005082  00000-0 -30199-3 0  9995,2 52703  53.2173 244.7849 0001460  55.7868 304.3262 15.08774244110316,6918.081,95.442,540.956,538.936,0.0
52703.0,STARLINK-4020,PAYLOAD,2024-05-12 13:32:55,15.08811813,0.0001329,53.2168,244.4859,105.6852,254.4287,0.0014092,0.00022193,0.0,0 STARLINK-4020,1 52703U 22053AZ  24133.56452898  .00022193  00000-0  14092-2 0  9994,2 52703  53.2168 244.4859 0001329 105.6852 254.4287 15.08811813109471,6917.967,95.439,540.751,538.912,0.0
52703.0,STARLINK-4020,PAYLOAD,2024-05-12 16:43:42,15.08816758,0.0001417,53.2162,243.8921,84.0744,276.041,0.0038005,0.00060679,0.0,0 STARLINK-4020,1 52703U 22053AZ  24133.69702131  .00060679  00000-0  38005-2 0  9997,2 52703  53.2162 243.8921 0001417  84.0744 276.0410 15.08816758110345,6917.951,95.439,540.797,538.836,0.0
52703.0,STARLINK-4020,PAYLOAD,2024-05-13 13:23:42,15.08874052,0.0001317,53.2158,240.0268,74.7919,285.3219,0.0013335,0.00021018,0.0,0 STARLINK-4020,1 52703U 22053AZ  24134.55812784  .00021018  00000-0  13335-2 0  9992,2 52703  53.2158 240.0268 0001317  74.7919 285.3219 15.08874052110477,6917.776,95.435,540.552,538.73,0.0
52703.0,STARLINK-4020,PAYLOAD,2024-05-14 13:14:28,15.0885255,0.0001414,53.2173,235.5658,89.5763,270.5392,6.7731e-05,7.9e-06,0.0,0 STARLINK-4020,1 52703U 22053AZ  24135.55171711  .00000790  00000-0  67731-4 0  9996,2 52703  53.2173 235.5658 0001414  89.5763 270.5392 15.08852550110629,6917.842,95.437,540.685,538.729,0.0
52703.0,STARLINK-4020,PAYLOAD,2024-05-15 13:05:15,15.08843423,0.0001253,53.2173,231.1061,87.8318,272.2817,0.00035233,5.324e-05,0.0,0 STARLINK-4020,1 52703U 22053AZ  24136.54532125  .00005324  00000-0  35233-3 0  9995,2 52703  53.2173 231.1061 0001253  87.8318 272.2817 15.08843423110773,6917.87,95.437,540.602,538.868,0.0
